{"type": "FeatureCollection", "features": [ {"type": "Feature", "properties": {"norad_id": 34375, "name": "IRIDIUM 33 DEB", "group": "iridium-33-debris", "lat": -46.408839603346166, "lon": 174.3062762534152, "alt_km": 893.4316111379658, "timestamp": "2025-12-24T05:51:19.994205+00:00", "meta": {"OBJECT_NAME": "IRIDIUM 33 DEB", "OBJECT_ID": "1997-051FT", "EPOCH": "2025-12-23T23:53:27.636864", "MEAN_MOTION": 14.18011996, "ECCENTRICITY": 0.01036955, "INCLINATION": 86.4323, "RA_OF_ASC_NODE": 178.164, "ARG_OF_PERICENTER": 91.5399, "MEAN_ANOMALY": 34.9546, "EPHEMERIS_TYPE": 0, "CLASSIFICATION_TYPE": "U", "NORAD_CAT_ID": 34375, "ELEMENT_SET_NO": 999, "REV_AT_EPOCH": 86871, "BSTAR": 0.0003861182, "MEAN_MOTION_DOT": 8.53e-06, "MEAN_MOTION_DDOT": 0}, "tle": {"line1": "1 34375U 97051FT  25357.99545876  .00000853  00000+0  38612-3 0  9997", "line2": "2 34375  86.4323 178.1640 0103695  91.5399  34.9546 14.18011996868718"}}, "geometry": {"type": "Point", "coordinates": [174.3062762534152, -46.408839603346166]}}, {"type": "Feature", "properties": {"norad_id": 34376, "name": "IRIDIUM 33 DEB", "group": "iridium-33-debris", "lat": 12.455257713994714, "lon": 2.1862405735311303, "alt_km": 694.5631184478325, "timestamp": "2025-12-24T05:51:19.994215+00:00", "meta": {"OBJECT_NAME": "IRIDIUM 33 DEB", "OBJECT_ID": "1997-051FU", "EPOCH": "2025-12-23T18:18:19.810656", "MEAN_MOTION": 14.62709985, "ECCENTRICITY": 0.00283537, "INCLINATION": 86.298, "RA_OF_ASC_NODE": 1.5832, "ARG_OF_PERICENTER": 130.5019, "MEAN_ANOMALY": 229.867, "EPHEMERIS_TYPE": 0, "CLASSIFICATION_TYPE": "U", "NORAD_CAT_ID": 34376, "ELEMENT_SET_NO": 999, "REV_AT_EPOCH": 88168, "BSTAR": 0.0014354429, "MEAN_MOTION_DOT": 7.374e-05, "MEAN_MOTION_DDOT": 0}, "tle": {"line1": "1 34376U 97051FU  25357.76272929  .00007374  00000+0  14354-2 0  9990", "line2": "2 34376  86.2980   1.5832 0028353 130.5019 229.8670 14.62709985881683"}}, "geometry": {"type": "Point", "coordinates": [2.1862405735311303, 12.455257713994714]}}, {"type": "Feature", "properties": {"norad_id": 34486, "name": "IRIDIUM 33 DEB", "group": "iridium-33-debris", "lat": 8.856217219505229, "lon": -173.8507598920262, "alt_km": 580.6547278690796, "timestamp": "2025-12-24T05:51:19.994226+00:00", "meta": {"OBJECT_NAME": "IRIDIUM 33 DEB", "OBJECT_ID": "1997-051GB", "EPOCH": "2025-12-23T12:06:52.771680", "MEAN_MOTION": 14.96260027, "ECCENTRICITY": 0.00139643, "INCLINATION": 86.3925, "RA_OF_ASC_NODE": 7.0539, "ARG_OF_PERICENTER": 81.2813, "MEAN_ANOMALY": 70.4302, "EPHEMERIS_TYPE": 0, "CLASSIFICATION_TYPE": "U", "NORAD_CAT_ID": 34486, "ELEMENT_SET_NO": 999, "REV_AT_EPOCH": 89147, "BSTAR": 0.0021946468, "MEAN_MOTION_DOT": 0.00024903, "MEAN_MOTION_DDOT": 0}, "tle": {"line1": "1 34486U 97051GB  25357.50477745  .00024903  00000+0  21946-2 0  9999", "line2": "2 34486  86.3925   7.0539 0013964  81.2813  70.4302 14.96260027891472"}}, "geometry": {"type": "Point", "coordinates": [-173.8507598920262, 8.856217219505229]}}, {"type": "Feature", "properties": {"norad_id": 34487, "name": "IRIDIUM 33 DEB", "group": "iridium-33-debris", "lat": 17.797803754432447, "lon": -173.75266899956122, "alt_km": 740.0132522492013, "timestamp": "2025-12-24T05:51:19.994236+00:00", "meta": {"OBJECT_NAME": "IRIDIUM 33 DEB", "OBJECT_ID": "1997-051GC", "EPOCH": "2025-12-23T11:33:20.683296", "MEAN_MOTION": 14.43229237, "ECCENTRICITY": 0.00332431, "INCLINATION": 86.3429, "RA_OF_ASC_NODE": 7.752, "ARG_OF_PERICENTER": 94.9572, "MEAN_ANOMALY": 67.6392, "EPHEMERIS_TYPE": 0, "CLASSIFICATION_TYPE": "U", "NORAD_CAT_ID": 34487, "ELEMENT_SET_NO": 999, "REV_AT_EPOCH": 88403, "BSTAR": 0.00016812921, "MEAN_MOTION_DOT": 5.89e-06, "MEAN_MOTION_DDOT": 0}, "tle": {"line1": "1 34487U 97051GC  25357.48148939  .00000589  00000+0  16813-3 0  9999", "line2": "2 34487  86.3429   7.7520 0033243  94.9572  67.6392 14.43229237884035"}}, "geometry": {"type": "Point", "coordinates": [-173.75266899956122, 17.797803754432447]}}, {"type": "Feature", "properties": {"norad_id": 34488, "name": "IRIDIUM 33 DEB", "group": "iridium-33-debris", "lat": 27.692319515748363, "lon": 118.17362181820667, "alt_km": 471.3637959984535, "timestamp": "2025-12-24T05:51:19.994246+00:00", "meta": {"OBJECT_NAME": "IRIDIUM 33 DEB", "OBJECT_ID": "1997-051GD", "EPOCH": "2025-12-23T07:14:56.478912", "MEAN_MOTION": 15.32002527, "ECCENTRICITY": 0.00097213, "INCLINATION": 86.3275, "RA_OF_ASC_NODE": 300.5735, "ARG_OF_PERICENTER": 36.3388, "MEAN_ANOMALY": 323.852, "EPHEMERIS_TYPE": 0, "CLASSIFICATION_TYPE": "U", "NORAD_CAT_ID": 34488, "ELEMENT_SET_NO": 999, "REV_AT_EPOCH": 89401, "BSTAR": 0.0045068376, "MEAN_MOTION_DOT": 0.00141753, "MEAN_MOTION_DDOT": 0}, "tle": {"line1": "1 34488U 97051GD  25357.30204258  .00141753  00000+0  45068-2 0  9990", "line2": "2 34488  86.3275 300.5735 0009721  36.3388 323.8520 15.32002527894015"}}, "geometry": {"type": "Point", "coordinates": [118.17362181820667, 27.692319515748363]}}, {"type": "Feature", "properties": {"norad_id": 34492, "name": "IRIDIUM 33 DEB", "group": "iridium-33-debris", "lat": -73.55591531543799, "lon": 162.04517768695703, "alt_km": 729.6892377736222, "timestamp": "2025-12-24T05:51:19.994257+00:00", "meta": {"OBJECT_NAME": "IRIDIUM 33 DEB", "OBJECT_ID": "1997-051GH", "EPOCH": "2025-12-22T16:27:23.909760", "MEAN_MOTION": 14.25892201, "ECCENTRICITY": 0.01887746, "INCLINATION": 86.4712, "RA_OF_ASC_NODE": 330.6072, "ARG_OF_PERICENTER": 205.8586, "MEAN_ANOMALY": 332.2477, "EPHEMERIS_TYPE": 0, "CLASSIFICATION_TYPE": "U", "NORAD_CAT_ID": 34492, "ELEMENT_SET_NO": 999, "REV_AT_EPOCH": 85200, "BSTAR": 0.0029608099, "MEAN_MOTION_DOT": 8.523e-05, "MEAN_MOTION_DDOT": 0}, "tle": {"line1": "1 34492U 97051GH  25356.68569340  .00008523  00000+0  29608-2 0  9990", "line2": "2 34492  86.4712 330.6072 0188774 205.8586 332.2477 14.25892201852009"}}, "geometry": {"type": "Point", "coordinates": [162.04517768695703, -73.55591531543799]}}, {"type": "Feature", "properties": {"norad_id": 34497, "name": "IRIDIUM 33 DEB", "group": "iridium-33-debris", "lat": -17.596325671314563, "lon": -131.33002004367975, "alt_km": 818.7053490598964, "timestamp": "2025-12-24T05:51:19.994267+00:00", "meta": {"OBJECT_NAME": "IRIDIUM 33 DEB", "OBJECT_ID": "1997-051GN", "EPOCH": "2025-12-22T21:33:03.136608", "MEAN_MOTION": 14.27482363, "ECCENTRICITY": 0.00780484, "INCLINATION": 86.2769, "RA_OF_ASC_NODE": 48.0617, "ARG_OF_PERICENTER": 306.2683, "MEAN_ANOMALY": 179.2919, "EPHEMERIS_TYPE": 0, "CLASSIFICATION_TYPE": "U", "NORAD_CAT_ID": 34497, "ELEMENT_SET_NO": 999, "REV_AT_EPOCH": 87028, "BSTAR": 0.00056228088, "MEAN_MOTION_DOT": 1.443e-05, "MEAN_MOTION_DDOT": 0}, "tle": {"line1": "1 34497U 97051GN  25356.89795297  .00001443  00000+0  56228-3 0  9993", "line2": "2 34497  86.2769  48.0617 0078048 306.2683 179.2919 14.27482363870281"}}, "geometry": {"type": "Point", "coordinates": [-131.33002004367975, -17.596325671314563]}}, {"type": "Feature", "properties": {"norad_id": 34508, "name": "IRIDIUM 33 DEB", "group": "iridium-33-debris", "lat": 86.29062179262903, "lon": -160.48268562579003, "alt_km": 722.2674257844583, "timestamp": "2025-12-24T05:51:19.994277+00:00", "meta": {"OBJECT_NAME": "IRIDIUM 33 DEB", "OBJECT_ID": "1997-051GZ", "EPOCH": "2025-12-23T06:03:45.637920", "MEAN_MOTION": 14.38502292, "ECCENTRICITY": 0.00666476, "INCLINATION": 86.3705, "RA_OF_ASC_NODE": 98.1866, "ARG_OF_PERICENTER": 139.2389, "MEAN_ANOMALY": 221.3824, "EPHEMERIS_TYPE": 0, "CLASSIFICATION_TYPE": "U", "NORAD_CAT_ID": 34508, "ELEMENT_SET_NO": 999, "REV_AT_EPOCH": 87460, "BSTAR": 0.0011996031, "MEAN_MOTION_DOT": 3.78e-05, "MEAN_MOTION_DDOT": 0}, "tle": {"line1": "1 34508U 97051GZ  25357.25261155  .00003780  00000+0  11996-2 0  9996", "line2": "2 34508  86.3705  98.1866 0066647 139.2389 221.3824 14.38502292874606"}}, "geometry": {"type": "Point", "coordinates": [-160.48268562579003, 86.29062179262903]}}, {"type": "Feature", "properties": {"norad_id": 34521, "name": "IRIDIUM 33 DEB", "group": "iridium-33-debris", "lat": -40.56871658957725, "lon": -151.4095059069337, "alt_km": 687.3920381804746, "timestamp": "2025-12-24T05:51:19.994287+00:00", "meta": {"OBJECT_NAME": "IRIDIUM 33 DEB", "OBJECT_ID": "1997-051HN", "EPOCH": "2025-12-23T12:26:26.164032", "MEAN_MOTION": 14.63450821, "ECCENTRICITY": 0.00029384, "INCLINATION": 86.3785, "RA_OF_ASC_NODE": 25.8017, "ARG_OF_PERICENTER": 171.2087, "MEAN_ANOMALY": 188.9177, "EPHEMERIS_TYPE": 0, "CLASSIFICATION_TYPE": "U", "NORAD_CAT_ID": 34521, "ELEMENT_SET_NO": 999, "REV_AT_EPOCH": 88630, "BSTAR": 0.0008546766, "MEAN_MOTION_DOT": 4.445e-05, "MEAN_MOTION_DDOT": 0}, "tle": {"line1": "1 34521U 97051HN  25357.51835838  .00004445  00000+0  85468-3 0  9990", "line2": "2 34521  86.3785  25.8017 0002938 171.2087 188.9177 14.63450821886305"}}, "geometry": {"type": "Point", "coordinates": [-151.4095059069337, -40.56871658957725]}}, {"type": "Feature", "properties": {"norad_id": 34525, "name": "IRIDIUM 33 DEB", "group": "iridium-33-debris", "lat": -85.83841393457989, "lon": -18.762378495959954, "alt_km": 760.4026712603054, "timestamp": "2025-12-24T05:51:19.994296+00:00", "meta": {"OBJECT_NAME": "IRIDIUM 33 DEB", "OBJECT_ID": "1997-051HS", "EPOCH": "2025-12-23T21:05:41.274816", "MEAN_MOTION": 14.42930782, "ECCENTRICITY": 0.00063075, "INCLINATION": 86.3718, "RA_OF_ASC_NODE": 42.0888, "ARG_OF_PERICENTER": 69.4746, "MEAN_ANOMALY": 107.6275, "EPHEMERIS_TYPE": 0, "CLASSIFICATION_TYPE": "U", "NORAD_CAT_ID": 34525, "ELEMENT_SET_NO": 999, "REV_AT_EPOCH": 88248, "BSTAR": 0.00032590431, "MEAN_MOTION_DOT": 1.109e-05, "MEAN_MOTION_DDOT": 0}, "tle": {"line1": "1 34525U 97051HS  25357.87894994  .00001109  00000+0  32590-3 0  9993", "line2": "2 34525  86.3718  42.0888 0006307  69.4746 107.6275 14.42930782882484"}}, "geometry": {"type": "Point", "coordinates": [-18.762378495959954, -85.83841393457989]}}]}